[{"OBJECT_NAME":"STARLINK-6072","OBJECT_ID":"2023-078AR","EPOCH":"2026-03-09T21:53:39.802272","MEAN_MOTION":14.98338105,"ECCENTRICITY":0.00026964,"INCLINATION":69.9991,"RA_OF_ASC_NODE":303.7408,"ARG_OF_PERICENTER":256.3468,"MEAN_ANOMALY":103.7391,"EPHEMERIS_TYPE":0,"CLASSIFICATION_TYPE":"U","NORAD_CAT_ID":56806,"ELEMENT_SET_NO":999,"REV_AT_EPOCH":15368,"BSTAR":6.6292384e-5,"MEAN_MOTION_DOT":6.98e-6,"MEAN_MOTION_DDOT":0},{"OBJECT_NAME":"ICEYE-X48","OBJECT_ID":"2025-052AV","EPOCH":"2026-03-09T16:59:01.566528","MEAN_MOTION":14.97356709,"ECCENTRICITY":0.00026878,"INCLINATION":97.6979,"RA_OF_ASC_NODE":322.3976,"ARG_OF_PERICENTER":141.7433,"MEAN_ANOMALY":218.398,"EPHEMERIS_TYPE":0,"CLASSIFICATION_TYPE":"U","NORAD_CAT_ID":63253,"ELEMENT_SET_NO":999,"REV_AT_EPOCH":5378,"BSTAR":0.00039588576,"MEAN_MOTION_DOT":4.541e-5,"MEAN_MOTION_DDOT":0}]
